{"type": "FeatureCollection", "features": [{"type": "Feature", "properties": {"norad_id": 25590, "name": "COSMOS 2361", "group": "musson", "lat": 82.36997012731914, "lon": 55.21551401158903, "alt_km": 1002.2977627612017, "timestamp": "2025-12-08T05:48:09.304264+00:00", "meta": {"OBJECT_NAME": "COSMOS 2361", "OBJECT_ID": "1998-076A", "EPOCH": "2025-12-07T19:44:07.754208", "MEAN_MOTION": 13.73216709, "ECCENTRICITY": 0.00300756, "INCLINATION": 82.9338, "RA_OF_ASC_NODE": 347.7238, "ARG_OF_PERICENTER": 279.8883, "MEAN_ANOMALY": 254.6926, "EPHEMERIS_TYPE": 0, "CLASSIFICATION_TYPE": "U", "NORAD_CAT_ID": 25590, "ELEMENT_SET_NO": 999, "REV_AT_EPOCH": 35043, "BSTAR": 8.6430495e-05, "MEAN_MOTION_DOT": 9.5e-07, "MEAN_MOTION_DDOT": 0}, "tle": {"line1": "1 25590U 98076A   25341.82231197  .00000095  00000+0  86430-4 0  9997", "line2": "2 25590  82.9338 347.7238 0030075 279.8883 254.6926 13.73216709350438"}}, "geometry": {"type": "Point", "coordinates": [55.21551401158903, 82.36997012731914]}}, {"type": "Feature", "properties": {"norad_id": 26818, "name": "COSMOS 2378", "group": "musson", "lat": 35.21667890941655, "lon": 178.03320580666835, "alt_km": 975.4603149943878, "timestamp": "2025-12-08T05:48:09.304285+00:00", "meta": {"OBJECT_NAME": "COSMOS 2378", "OBJECT_ID": "2001-023A", "EPOCH": "2025-12-07T19:27:21.426624", "MEAN_MOTION": 13.74141369, "ECCENTRICITY": 0.00321313, "INCLINATION": 82.9274, "RA_OF_ASC_NODE": 3.38, "ARG_OF_PERICENTER": 218.8795, "MEAN_ANOMALY": 314.3967, "EPHEMERIS_TYPE": 0, "CLASSIFICATION_TYPE": "U", "NORAD_CAT_ID": 26818, "ELEMENT_SET_NO": 999, "REV_AT_EPOCH": 22855, "BSTAR": 5.9722739e-05, "MEAN_MOTION_DOT": 7.1e-07, "MEAN_MOTION_DDOT": 0}, "tle": {"line1": "1 26818U 01023A   25341.81066466  .00000071  00000+0  59723-4 0  9990", "line2": "2 26818  82.9274   3.3800 0032131 218.8795 314.3967 13.74141369228557"}}, "geometry": {"type": "Point", "coordinates": [178.03320580666835, 35.21667890941655]}}, {"type": "Feature", "properties": {"norad_id": 27436, "name": "COSMOS 2389", "group": "musson", "lat": -25.157536416099145, "lon": -53.01709762928509, "alt_km": 991.5121696551751, "timestamp": "2025-12-08T05:48:09.304298+00:00", "meta": {"OBJECT_NAME": "COSMOS 2389", "OBJECT_ID": "2002-026A", "EPOCH": "2025-12-07T23:15:21.608640", "MEAN_MOTION": 13.75153874, "ECCENTRICITY": 0.0047718, "INCLINATION": 82.9498, "RA_OF_ASC_NODE": 310.5167, "ARG_OF_PERICENTER": 73.7069, "MEAN_ANOMALY": 351.9582, "EPHEMERIS_TYPE": 0, "CLASSIFICATION_TYPE": "U", "NORAD_CAT_ID": 27436, "ELEMENT_SET_NO": 999, "REV_AT_EPOCH": 18083, "BSTAR": 7.9498997e-05, "MEAN_MOTION_DOT": 9.2e-07, "MEAN_MOTION_DDOT": 0}, "tle": {"line1": "1 27436U 02026A   25341.96900010  .00000092  00000+0  79499-4 0  9994", "line2": "2 27436  82.9498 310.5167 0047718  73.7069 351.9582 13.75153874180833"}}, "geometry": {"type": "Point", "coordinates": [-53.01709762928509, -25.157536416099145]}}, {"type": "Feature", "properties": {"norad_id": 27818, "name": "COSMOS 2398", "group": "musson", "lat": -27.326801308384606, "lon": -87.65422346635998, "alt_km": 1017.6492291488912, "timestamp": "2025-12-08T05:48:09.304310+00:00", "meta": {"OBJECT_NAME": "COSMOS 2398", "OBJECT_ID": "2003-023A", "EPOCH": "2025-12-07T21:28:54.988896", "MEAN_MOTION": 13.7238491, "ECCENTRICITY": 0.00324074, "INCLINATION": 82.9481, "RA_OF_ASC_NODE": 276.2684, "ARG_OF_PERICENTER": 124.7774, "MEAN_ANOMALY": 296.0498, "EPHEMERIS_TYPE": 0, "CLASSIFICATION_TYPE": "U", "NORAD_CAT_ID": 27818, "ELEMENT_SET_NO": 999, "REV_AT_EPOCH": 12750, "BSTAR": 8.1778361e-05, "MEAN_MOTION_DOT": 9e-07, "MEAN_MOTION_DDOT": 0}, "tle": {"line1": "1 27818U 03023A   25341.89508089  .00000090  00000+0  81778-4 0  9999", "line2": "2 27818  82.9481 276.2684 0032407 124.7774 296.0498 13.72384910127504"}}, "geometry": {"type": "Point", "coordinates": [-87.65422346635998, -27.326801308384606]}}, {"type": "Feature", "properties": {"norad_id": 28380, "name": "COSMOS 2407", "group": "musson", "lat": 73.22830276826939, "lon": 12.022416705121868, "alt_km": 946.5589699001766, "timestamp": "2025-12-08T05:48:09.304321+00:00", "meta": {"OBJECT_NAME": "COSMOS 2407", "OBJECT_ID": "2004-028A", "EPOCH": "2025-12-07T22:22:07.842144", "MEAN_MOTION": 13.76312885, "ECCENTRICITY": 0.00404618, "INCLINATION": 82.9614, "RA_OF_ASC_NODE": 216.4521, "ARG_OF_PERICENTER": 67.8849, "MEAN_ANOMALY": 303.2551, "EPHEMERIS_TYPE": 0, "CLASSIFICATION_TYPE": "U", "NORAD_CAT_ID": 28380, "ELEMENT_SET_NO": 999, "REV_AT_EPOCH": 7357, "BSTAR": 9.4958738e-05, "MEAN_MOTION_DOT": 1.09e-06, "MEAN_MOTION_DDOT": 0}, "tle": {"line1": "1 28380U 04028A   25341.93203521  .00000109  00000+0  94959-4 0  9994", "line2": "2 28380  82.9614 216.4521 0040461  67.8849 303.2551 13.76312885 73576"}}, "geometry": {"type": "Point", "coordinates": [12.022416705121868, 73.22830276826939]}}, {"type": "Feature", "properties": {"norad_id": 28521, "name": "COSMOS 2414", "group": "musson", "lat": -1.3130952548407004, "lon": 8.223702763656615, "alt_km": 913.0393292500812, "timestamp": "2025-12-08T05:48:09.304331+00:00", "meta": {"OBJECT_NAME": "COSMOS 2414", "OBJECT_ID": "2005-002A", "EPOCH": "2025-12-07T22:00:48.471552", "MEAN_MOTION": 13.87902067, "ECCENTRICITY": 0.00406134, "INCLINATION": 82.9497, "RA_OF_ASC_NODE": 188.3066, "ARG_OF_PERICENTER": 153.2375, "MEAN_ANOMALY": 207.0897, "EPHEMERIS_TYPE": 0, "CLASSIFICATION_TYPE": "U", "NORAD_CAT_ID": 28521, "ELEMENT_SET_NO": 999, "REV_AT_EPOCH": 5728, "BSTAR": 8.2731538e-05, "MEAN_MOTION_DOT": 1.15e-06, "MEAN_MOTION_DDOT": 0}, "tle": {"line1": "1 28521U 05002A   25341.91722768  .00000115  00000+0  82732-4 0  9994", "line2": "2 28521  82.9497 188.3066 0040613 153.2375 207.0897 13.87902067 57289"}}, "geometry": {"type": "Point", "coordinates": [8.223702763656615, -1.3130952548407004]}}, {"type": "Feature", "properties": {"norad_id": 32052, "name": "COSMOS 2429", "group": "musson", "lat": 18.095159573652204, "lon": 164.31775456902818, "alt_km": 992.0109660749722, "timestamp": "2025-12-08T05:48:09.304342+00:00", "meta": {"OBJECT_NAME": "COSMOS 2429", "OBJECT_ID": "2007-038A", "EPOCH": "2025-12-07T23:47:02.326560", "MEAN_MOTION": 13.75148646, "ECCENTRICITY": 0.00394578, "INCLINATION": 82.9802, "RA_OF_ASC_NODE": 346.8099, "ARG_OF_PERICENTER": 50.7881, "MEAN_ANOMALY": 309.6768, "EPHEMERIS_TYPE": 0, "CLASSIFICATION_TYPE": "U", "NORAD_CAT_ID": 32052, "ELEMENT_SET_NO": 999, "REV_AT_EPOCH": 91537, "BSTAR": 5.8930416e-05, "MEAN_MOTION_DOT": 7.2e-07, "MEAN_MOTION_DDOT": 0}, "tle": {"line1": "1 32052U 07038A   25341.99099915  .00000072  00000+0  58930-4 0  9993", "line2": "2 32052  82.9802 346.8099 0039457  50.7881 309.6768 13.75148646915378"}}, "geometry": {"type": "Point", "coordinates": [164.31775456902818, 18.095159573652204]}}, {"type": "Feature", "properties": {"norad_id": 35635, "name": "COSMOS 2454", "group": "musson", "lat": -18.611400311727376, "lon": -5.558929258738546, "alt_km": 939.700359634584, "timestamp": "2025-12-08T05:48:09.304352+00:00", "meta": {"OBJECT_NAME": "COSMOS 2454", "OBJECT_ID": "2009-039A", "EPOCH": "2025-12-07T22:27:54.197280", "MEAN_MOTION": 13.89927698, "ECCENTRICITY": 0.00204858, "INCLINATION": 82.9556, "RA_OF_ASC_NODE": 172.2864, "ARG_OF_PERICENTER": 86.5601, "MEAN_ANOMALY": 22.9478, "EPHEMERIS_TYPE": 0, "CLASSIFICATION_TYPE": "U", "NORAD_CAT_ID": 35635, "ELEMENT_SET_NO": 999, "REV_AT_EPOCH": 83083, "BSTAR": 6.5691095e-05, "MEAN_MOTION_DOT": 9.7e-07, "MEAN_MOTION_DDOT": 0}, "tle": {"line1": "1 35635U 09039A   25341.93604395  .00000097  00000+0  65691-4 0  9993", "line2": "2 35635  82.9556 172.2864 0020485  86.5601  22.9478 13.89927698830830"}}, "geometry": {"type": "Point", "coordinates": [-5.558929258738546, -18.611400311727376]}}, {"type": "Feature", "properties": {"norad_id": 36519, "name": "COSMOS 2463", "group": "musson", "lat": 5.894407754998404, "lon": -150.71279747007534, "alt_km": 1011.2192785840716, "timestamp": "2025-12-08T05:48:09.304363+00:00", "meta": {"OBJECT_NAME": "COSMOS 2463", "OBJECT_ID": "2010-017A", "EPOCH": "2025-12-07T21:02:54.757824", "MEAN_MOTION": 13.71648583, "ECCENTRICITY": 0.00349149, "INCLINATION": 82.9616, "RA_OF_ASC_NODE": 30.2859, "ARG_OF_PERICENTER": 302.0441, "MEAN_ANOMALY": 232.1148, "EPHEMERIS_TYPE": 0, "CLASSIFICATION_TYPE": "U", "NORAD_CAT_ID": 36519, "ELEMENT_SET_NO": 999, "REV_AT_EPOCH": 78170, "BSTAR": 8.8538262e-05, "MEAN_MOTION_DOT": 9.5e-07, "MEAN_MOTION_DDOT": 0}, "tle": {"line1": "1 36519U 10017A   25341.87702266  .00000095  00000+0  88538-4 0  9995", "line2": "2 36519  82.9616  30.2859 0034914 302.0441 232.1148 13.71648583781700"}}, "geometry": {"type": "Point", "coordinates": [-150.71279747007534, 5.894407754998404]}}]}